H1 CPF 01  gfz 2021 06 27 00  6781 terrasarx 
H2 0702601  6201 31698    2021 06 27 00 59 42 2021 07 02 00 00 42   120 1 1  0 0 0
H9
10 0 59394  79182.000000  0     591043.216  -2640174.614   6324628.221
10 0 59394  79302.000000  0     103449.174  -1911970.871   6606513.386
10 0 59394  79422.000000  0    -372837.867  -1141970.833   6772308.541
10 0 59394  79542.000000  0    -828897.813   -343889.205   6819118.615
10 0 59394  79662.000000  0   -1256409.864    467923.504   6746125.984
10 0 59394  79782.000000  0   -1647803.827   1278738.645   6554603.526
10 0 59394  79902.000000  0   -1996393.960   2073715.670   6247893.703
10 0 59394  80022.000000  0   -2296493.920   2838173.246   5831353.979
10 0 59394  80142.000000  0   -2543510.364   3557861.347   5312268.636
10 0 59394  80262.000000  0   -2734014.790   4219229.704   4699728.440
10 0 59394  80382.000000  0   -2865792.130   4809688.606   4004477.287
10 0 59394  80502.000000  0   -2937863.973   5317855.984   3238727.544
10 0 59394  80622.000000  0   -2950485.880   5733784.865   2415946.208
10 0 59394  80742.000000  0   -2905119.006   6049165.324   1550616.376
10 0 59394  80862.000000  0   -2804376.360   6257496.758    657978.187
10 0 59394  80982.000000  0   -2651944.552   6354226.219   -246246.079
10 0 59394  81102.000000  0   -2452483.679   6336848.659  -1146137.599
10 0 59394  81222.000000  0   -2211507.324   6204965.749  -2025872.474
10 0 59394  81342.000000  0   -1935243.725   5960297.961  -2870009.877
10 0 59394  81462.000000  0   -1630484.569   5606654.861  -3663766.136
10 0 59394  81582.000000  0   -1304426.352   5149866.361  -4393274.734
10 0 59394  81702.000000  0    -964507.160   4597674.596  -5045825.918
10 0 59394  81822.000000  0    -618243.071   3959592.332  -5610081.827
10 0 59394  81942.000000  0    -273067.045   3246729.839  -6076265.934
10 0 59394  82062.000000  0      63826.110   2471593.177  -6436322.294
10 0 59394  82182.000000  0     385624.555   1647860.574  -6684042.350
10 0 59394  82302.000000  0     686032.162    790141.661  -6815162.296
10 0 59394  82422.000000  0     959387.795    -86278.822  -6827428.650
10 0 59394  82542.000000  0    1200768.657   -965708.555  -6720632.377
10 0 59394  82662.000000  0    1406076.267  -1832321.768  -6496610.392
10 0 59394  82782.000000  0    1572104.650  -2670435.915  -6159217.537
10 0 59394  82902.000000  0    1696590.564  -3464789.635  -5714268.985
10 0 59394  83022.000000  0    1778243.523  -4200820.110  -5169450.984
10 0 59394  83142.000000  0    1816755.694  -4864931.381  -4534197.480
10 0 59394  83262.000000  0    1812791.744  -5444748.690  -3819537.908
10 0 59394  83382.000000  0    1767957.921  -5929357.693  -3037915.955
10 0 59394  83502.000000  0    1684749.980  -6309520.828  -2202979.426
10 0 59394  83622.000000  0    1566482.234  -6577864.648  -1329344.337
10 0 59394  83742.000000  0    1417198.471  -6729033.935   -432338.690
10 0 59394  83862.000000  0    1241566.358  -6759808.742    472271.741
10 0 59394  83982.000000  0    1044758.740  -6669177.576   1368567.155
10 0 59394  84102.000000  0     832323.110  -6458368.631   2240763.036
10 0 59394  84222.000000  0     610044.853  -6130833.481   3073498.373
10 0 59394  84342.000000  0     383805.042  -5692185.232   3852113.804
10 0 59394  84462.000000  0     159438.083  -5150094.825   4562913.896
10 0 59394  84582.000000  0     -57406.811  -4514148.005   5193410.507
10 0 59394  84702.000000  0    -261397.474  -3795665.559   5732541.584
10 0 59394  84822.000000  0    -447640.328  -3007491.923   6170862.739
10 0 59394  84942.000000  0    -611789.925  -2163756.386   6500706.302
10 0 59394  85062.000000  0    -750144.074  -1279615.682   6716307.767
10 0 59394  85182.000000  0    -859722.776   -370980.067   6813901.783
10 0 59394  85302.000000  0    -938330.208    545774.189   6791784.715
10 0 59394  85422.000000  0    -984597.832   1454099.905   6650342.381
10 0 59394  85542.000000  0    -998007.782   2337577.018   6392043.521
10 0 59394  85662.000000  0    -978897.048   3180209.014   6021399.482
10 0 59394  85782.000000  0    -928442.580   3966713.923   5544890.334
10 0 59394  85902.000000  0    -848626.583   4682804.554   4970857.064
10 0 59394  86022.000000  0    -742183.638   5315454.176   4309362.269
10 0 59394  86142.000000  0    -612529.752   5853141.984   3572017.236
10 0 59394  86262.000000  0    -463675.187   6286070.789   2771782.512
10 0 59394  86382.000000  0    -300123.957   6606359.243   1922740.390
10 0 59395    102.000000  0    -126758.823   6808193.945   1039841.070
10 0 59395    222.000000  0      51283.037   6887941.089    138633.733
10 0 59395    342.000000  0     228740.620   6844216.078   -765014.991
10 0 59395    462.000000  0     400363.257   6677907.142  -1655210.393
10 0 59395    582.000000  0     561042.598   6392151.420  -2516317.548
10 0 59395    702.000000  0     705940.570   5992267.576  -3333241.399
10 0 59395    822.000000  0     830610.998   5485646.565  -4091694.560
10 0 59395    942.000000  0     931111.310   4881602.829  -4778447.207
10 0 59395   1062.000000  0    1004101.877   4191190.568  -5381553.817
10 0 59395   1182.000000  0    1046930.678   3426990.742  -5890553.273
10 0 59395   1302.000000  0    1057701.183   2602873.675  -6296640.915
10 0 59395   1422.000000  0    1035323.011   1733742.045  -6592808.958
10 0 59395   1542.000000  0     979544.294    835261.657  -6773956.027
10 0 59395   1662.000000  0     890965.496    -76417.986  -6836966.598
10 0 59395   1782.000000  0     771034.797   -984949.041  -6780758.409
10 0 59395   1902.000000  0     622024.382  -1874071.510  -6606297.353
10 0 59395   2022.000000  0     446989.255  -2727895.380  -6316582.490
10 0 59395   2142.000000  0     249708.001  -3531179.311  -5916602.690
10 0 59395   2262.000000  0      34606.014  -4269601.156  -5413258.921
10 0 59395   2382.000000  0    -193336.149  -4930013.608  -4815255.860
10 0 59395   2502.000000  0    -428689.520  -5500683.240  -4132963.170
10 0 59395   2622.000000  0    -665696.477  -5971507.774  -3378245.928
10 0 59395   2742.000000  0    -898400.868  -6334205.849  -2564265.996
10 0 59395   2862.000000  0   -1120786.082  -6582475.396  -1705257.611
10 0 59395   2982.000000  0   -1326917.678  -6712116.441   -816278.805
10 0 59395   3102.000000  0   -1511086.959  -6721112.920     87056.187
10 0 59395   3222.000000  0   -1667952.140  -6609671.355    988857.380
10 0 59395   3342.000000  0   -1792673.692  -6380215.212   1873246.745
10 0 59395   3462.000000  0   -1881039.811  -6037334.271   2724647.141
10 0 59395   3582.000000  0   -1929578.450  -5587689.644   3528065.470
10 0 59395   3702.000000  0   -1935652.973  -5039877.607   4269363.088
10 0 59395   3822.000000  0   -1897539.081  -4404256.788   4935507.737
10 0 59395   3942.000000  0   -1814482.570  -3692743.861   5514803.439
10 0 59395   4062.000000  0   -1686735.723  -2918580.225   5997094.784
10 0 59395   4182.000000  0   -1515570.600  -2096077.061   6373939.387
10 0 59395   4302.000000  0   -1303270.494  -1240346.402   6638749.220
10 0 59395   4422.000000  0   -1053100.790   -367020.237   6786900.295
10 0 59395   4542.000000  0    -769259.459    508036.221   6815807.397
10 0 59395   4662.000000  0    -456806.727   1369011.752   6724966.862
10 0 59395   4782.000000  0    -121574.679   2200434.531   6515965.090
10 0 59395   4902.000000  0     229941.305   2987449.941   6192452.286
10 0 59395   5022.000000  0     590707.008   3716086.317   5760082.679
10 0 59395   5142.000000  0     953287.924   4373506.084   5226421.353
10 0 59395   5262.000000  0    1310000.211   4948236.963   4600817.882
10 0 59395   5382.000000  0    1653070.902   5430379.320   3894247.291
10 0 59395   5502.000000  0    1974804.238   5811784.629   3119123.185
10 0 59395   5622.000000  0    2267752.329   6086204.332   2289080.714
10 0 59395   5742.000000  0    2524882.426   6249400.635   1418732.898
10 0 59395   5862.000000  0    2739739.455   6299216.816    523407.023
10 0 59395   5982.000000  0    2906597.198   6235604.657   -381132.641
10 0 59395   6102.000000  0    3020596.583   6060610.760  -1278970.261
10 0 59395   6222.000000  0    3077866.933   5778320.336  -2154326.571
10 0 59395   6342.000000  0    3075626.889   5394761.109  -2991843.197
10 0 59395   6462.000000  0    3012262.637   4917768.657  -3776857.780
10 0 59395   6582.000000  0    2887380.782   4356817.063  -4495662.003
10 0 59395   6702.000000  0    2701835.652   3722821.874  -5135738.249
10 0 59395   6822.000000  0    2457731.258   3027919.597  -5685971.275
10 0 59395   6942.000000  0    2158398.886   2285229.081  -6136832.585
10 0 59395   7062.000000  0    1808349.754   1508599.847  -6480534.319
10 0 59395   7182.000000  0    1413205.815    712353.700  -6711151.591
10 0 59395   7302.000000  0     979609.579    -88976.159  -6824715.077
10 0 59395   7422.000000  0     515112.404   -880905.859  -6819272.420
10 0 59395   7542.000000  0      28044.981  -1649256.667  -6694916.402
10 0 59395   7662.000000  0    -472627.643  -2380401.154  -6453783.255
10 0 59395   7782.000000  0    -977466.852  -3061500.006  -6100021.798
10 0 59395   7902.000000  0   -1476733.897  -3680725.359  -5639728.981
10 0 59395   8022.000000  0   -1960573.023  -4227465.833  -5080855.419
10 0 59395   8142.000000  0   -2419203.003  -4692512.810  -4433080.480
10 0 59395   8262.000000  0   -2843113.704  -5068222.870  -3707655.154
10 0 59395   8382.000000  0   -3223262.631  -5348651.661  -2917215.222
10 0 59395   8502.000000  0   -3551267.691  -5529657.389  -2075567.623
10 0 59395   8622.000000  0   -3819592.354  -5608970.779  -1197451.963
10 0 59395   8742.000000  0   -4021717.717  -5586228.679   -298280.564
10 0 59395   8862.000000  0   -4152296.262  -5462969.442    606137.457
10 0 59395   8982.000000  0   -4207283.688  -5242589.905   1499882.025
10 0 59395   9102.000000  0   -4184044.920  -4930263.920   2367212.010
10 0 59395   9222.000000  0   -4081430.929  -4532824.545   3192851.185
99
